NORAD_CAT_ID,OBJECT_NAME,OBJECT_TYPE,EPOCH,MEAN_MOTION,ECCENTRICITY,INCLINATION,RA_OF_ASC_NODE,ARG_OF_PERICENTER,MEAN_ANOMALY,BSTAR,MEAN_MOTION_DOT,MEAN_MOTION_DDOT,TLE_LINE0,TLE_LINE1,TLE_LINE2,SEMIMAJOR_AXIS,PERIOD,APOGEE,PERIGEE,DECAYED
53000.0,STARLINK-4194,PAYLOAD,2024-05-23 10:37:20,15.08841519,0.0001364,53.2158,155.638,109.1227,250.9913,-6.4301e-05,-1.311e-05,0.0,0 STARLINK-4194,1 53000U 22076Q   24144.44260327 -.00001311  00000-0 -64301-4 0  9994,2 53000  53.2158 155.6380 0001364 109.1227 250.9913 15.08841519103924,6917.876,95.437,540.684,538.797,0.0
53000.0,STARLINK-4194,PAYLOAD,2024-05-24 07:17:21,15.08843953,0.0001276,53.2156,151.774,102.1004,258.0131,6.8172e-05,7.97e-06,0.0,0 STARLINK-4194,1 53000U 22076Q   24145.30371561  .00000797  00000-0  68172-4 0  9998,2 53000  53.2156 151.7740 0001276 102.1004 258.0131 15.08843953104529,6917.868,95.437,540.616,538.851,0.0
53000.0,STARLINK-4194,PAYLOAD,2024-05-25 05:32:45,15.08828669,0.0001294,53.2157,147.6102,107.3183,252.795,2.6306e-05,1.31e-06,0.0,0 STARLINK-4194,1 53000U 22076Q   24146.23108634  .00000131  00000-0  26306-4 0  9995,2 53000  53.2157 147.6102 0001294 107.3183 252.7950 15.08828669104663,6917.915,95.438,540.675,538.885,0.0
53000.0,STARLINK-4194,PAYLOAD,2024-05-25 07:08:09,15.08828034,0.0001251,53.2158,147.3129,99.876,260.2373,1.8e-05,-1e-08,0.0,0 STARLINK-4194,1 53000U 22076Q   24146.29732761 -.00000001  00000-0  18000-4 0  9994,2 53000  53.2158 147.3129 0001251  99.8760 260.2373 15.08828034104208,6917.917,95.438,540.647,538.917,0.0
53000.0,STARLINK-4194,PAYLOAD,2024-05-26 03:48:09,15.08836779,0.0001387,53.2166,143.4489,102.0539,258.0609,1.8881e-05,1.3e-07,0.0,0 STARLINK-4194,1 53000U 22076Q   24147.15844618  .00000013  00000-0  18881-4 0  9994,2 53000  53.2166 143.4489 0001387 102.0539 258.0609 15.08836779104802,6917.89,95.438,540.715,538.796,0.0
53000.0,STARLINK-4194,PAYLOAD,2024-05-26 05:23:32,15.08838004,0.0001275,53.2161,143.1494,101.4872,258.6264,1.2733e-05,-8.5e-07,0.0,0 STARLINK-4194,1 53000U 22076Q   24147.22468511 -.00000085  00000-0  12733-4 0  9996,2 53000  53.2161 143.1494 0001275 101.4872 258.6264 15.08838004104344,6917.886,95.438,540.634,538.869,0.0
53000.0,STARLINK-4194,PAYLOAD,2024-05-26 16:31:14,15.08837755,0.0001317,53.2163,141.069,109.0535,251.06,6.9955e-05,8.26e-06,0.0,0 STARLINK-4194,1 53000U 22076Q   24147.68836383  .00000826  00000-0  69955-4 0  9992,2 53000  53.2163 141.0690 0001317 109.0535 251.0600 15.08837755104419,6917.887,95.438,540.663,538.841,0.0
53000.0,STARLINK-4194,PAYLOAD,2024-05-27 05:14:19,15.08841633,0.000144,53.2165,138.6899,104.9915,255.1237,3.5624e-05,2.79e-06,0.0,0 STARLINK-4194,1 53000U 22076Q   24148.21828362  .00000279  00000-0  35624-4 0  9998,2 53000  53.2165 138.6899 0001440 104.9915 255.1237 15.08841633104968,6917.875,95.437,540.737,538.744,0.0
53000.0,STARLINK-4194,PAYLOAD,2024-05-27 08:25:06,15.08838239,0.0001353,53.2161,138.0934,100.6614,259.453,9.6541e-05,1.249e-05,0.0,0 STARLINK-4194,1 53000U 22076Q   24148.35076398  .00001249  00000-0  96541-4 0  9990,2 53000  53.2161 138.0934 0001353 100.6614 259.4530 15.08838239104512,6917.886,95.438,540.687,538.815,0.0
53000.0,STARLINK-4194,PAYLOAD,2024-05-27 16:22:01,15.08838558,0.0001241,53.2161,136.6064,94.5739,265.5394,0.00010335,1.357e-05,0.0,0 STARLINK-4194,1 53000U 22076Q   24148.68196375  .00001357  00000-0  10335-3 0  9990,2 53000  53.2161 136.6064 0001241  94.5739 265.5394 15.08838558104560,6917.885,95.438,540.608,538.891,0.0
53000.0,STARLINK-4194,PAYLOAD,2024-05-28 08:15:53,15.08841061,0.0001219,53.2158,133.632,94.015,266.0981,5.1423e-05,5.31e-06,0.0,0 STARLINK-4194,1 53000U 22076Q   24149.34436400  .00000531  00000-0  51423-4 0  9997,2 53000  53.2158 133.6320 0001219  94.0150 266.0981 15.08841061105130,6917.877,95.437,540.585,538.899,0.0
53000.0,STARLINK-4194,PAYLOAD,2024-05-29 04:55:53,15.08840629,0.0001251,53.2159,129.7658,92.8412,267.2724,1.946e-05,2.2e-07,0.0,0 STARLINK-4194,1 53000U 22076Q   24150.20548458  .00000022  00000-0  19460-4 0  9991,2 53000  53.2159 129.7658 0001251  92.8412 267.2724 15.08840629104792,6917.878,95.438,540.609,538.878,0.0
53000.0,STARLINK-4194,PAYLOAD,2024-05-30 04:46:40,15.08843071,0.0001284,53.216,125.3035,89.0758,271.0381,6.3992e-05,7.31e-06,0.0,0 STARLINK-4194,1 53000U 22076Q   24151.19908101  .00000731  00000-0  63992-4 0  9991,2 53000  53.2160 125.3035 0001284  89.0758 271.0381 15.08843071105418,6917.871,95.437,540.624,538.848,0.0
53000.0,STARLINK-4194,PAYLOAD,2024-05-30 07:57:26,15.08843429,0.000129,53.2161,124.7098,90.3778,269.7362,6.4351e-05,7.36e-06,0.0,0 STARLINK-4194,1 53000U 22076Q   24151.33156060  .00000736  00000-0  64351-4 0  9991,2 53000  53.2161 124.7098 0001290  90.3778 269.7362 15.08843429104964,6917.87,95.437,540.627,538.843,0.0
53000.0,STARLINK-4194,PAYLOAD,2024-05-31 04:37:27,15.0883937,0.000138,53.2168,120.8425,105.3207,254.7938,2.815e-05,1.6e-06,0.0,0 STARLINK-4194,1 53000U 22076Q   24152.19268356  .00000160  00000-0  28150-4 0  9996,2 53000  53.2168 120.8425 0001380 105.3207 254.7938 15.08839370105566,6917.882,95.438,540.702,538.793,0.0
53000.0,STARLINK-4194,PAYLOAD,2024-05-31 07:48:14,15.08838221,0.0001425,53.217,120.2494,106.6846,253.4303,1.9412e-05,2.1e-07,0.0,0 STARLINK-4194,1 53000U 22076Q   24152.32516473  .00000021  00000-0  19412-4 0  9994,2 53000  53.2170 120.2494 0001425 106.6846 253.4303 15.08838221105119,6917.886,95.438,540.737,538.765,0.0
53000.0,STARLINK-4194,PAYLOAD,2024-06-01 07:39:01,15.08838824,0.0001265,53.2167,115.7893,91.2647,268.8491,1.8118e-06,-2.59e-06,0.0,0 STARLINK-4194,1 53000U 22076Q   24153.31876572 -.00000259  00000-0  18118-5 0  9990,2 53000  53.2167 115.7893 0001265  91.2647 268.8491 15.08838824105732,6917.884,95.438,540.624,538.874,0.0
53000.0,STARLINK-4194,PAYLOAD,2024-06-01 14:00:32,15.08854948,0.0001203,53.2162,114.6041,93.2417,266.8713,0.00012308,1.672e-05,0.0,0 STARLINK-4194,1 53000U 22076Q   24153.58370949  .00001672  00000-0  12308-3 0  9998,2 53000  53.2162 114.6041 0001203  93.2417 266.8713 15.08854948105302,6917.835,95.437,540.532,538.867,0.0
53000.0,STARLINK-4194,PAYLOAD,2024-06-01 21:57:30,15.08826817,0.0001405,53.2167,113.1135,85.3173,274.7979,-3.9109e-05,-9.1e-06,0.0,0 STARLINK-4194,1 53000U 22076Q   24153.91493345 -.00000910  00000-0 -39109-4 0  9996,2 53000  53.2167 113.1135 0001405  85.3173 274.7979 15.08826817105823,6917.921,95.438,540.758,538.814,0.0
53000.0,STARLINK-4194,PAYLOAD,2024-06-02 13:51:21,15.08836159,0.0001336,53.2178,110.1424,88.4971,271.6174,1.6431e-05,-2.6e-07,0.0,0 STARLINK-4194,1 53000U 22076Q   24154.57732950 -.00000026  00000-0  16431-4 0  9997,2 53000  53.2178 110.1424 0001336  88.4971 271.6174 15.08836159105458,6917.892,95.438,540.681,538.833,0.0
53000.0,STARLINK-4194,PAYLOAD,2024-06-03 04:09:50,15.08825621,0.0001331,53.2184,107.4674,101.8506,258.2635,0.00013366,1.839e-05,0.0,0 STARLINK-4194,1 53000U 22076Q   24155.17349548  .00001839  00000-0  13366-3 0  9996,2 53000  53.2184 107.4674 0001331 101.8506 258.2635 15.08825621106018,6917.924,95.438,540.71,538.869,0.0
53000.0,STARLINK-4194,PAYLOAD,2024-06-03 13:42:08,15.08843461,0.0001265,53.2177,105.6811,87.3348,272.7789,8.6369e-05,1.087e-05,0.0,0 STARLINK-4194,1 53000U 22076Q   24155.57092698  .00001087  00000-0  86369-4 0  9990,2 53000  53.2177 105.6811 0001265  87.3348 272.7789 15.08843461105608,6917.87,95.437,540.61,538.86,0.0
53000.0,STARLINK-4194,PAYLOAD,2024-06-04 04:00:37,15.08829094,0.0001563,53.2184,103.0048,81.6513,278.4656,6.1517e-05,6.91e-06,0.0,0 STARLINK-4194,1 53000U 22076Q   24156.16710009  .00000691  00000-0  61517-4 0  9997,2 53000  53.2184 103.0048 0001563  81.6513 278.4656 15.08829094106166,6917.914,95.438,540.86,538.697,0.0
53000.0,STARLINK-4194,PAYLOAD,2024-06-04 13:32:55,15.08844605,0.0001437,53.2183,101.2194,74.6514,285.4636,0.00017703,2.531e-05,0.0,0 STARLINK-4194,1 53000U 22076Q   24156.56452787  .00002531  00000-0  17703-3 0  9999,2 53000  53.2183 101.2194 0001437  74.6514 285.4636 15.08844605105755,6917.866,95.437,540.725,538.737,0.0
53000.0,STARLINK-4194,PAYLOAD,2024-06-05 03:51:23,15.08842194,0.0001156,53.2168,98.5433,82.3702,277.7421,3.4183e-05,2.56e-06,0.0,0 STARLINK-4194,1 53000U 22076Q   24157.16069371  .00000256  00000-0  34183-4 0  9993,2 53000  53.2168  98.5433 0001156  82.3702 277.7421 15.08842194106315,6917.874,95.437,540.538,538.939,0.0
53000.0,STARLINK-4194,PAYLOAD,2024-06-05 13:23:42,15.08851356,0.0001243,53.2172,96.761,84.7285,275.3849,9.9359e-05,1.294e-05,0.0,0 STARLINK-4194,1 53000U 22076Q   24157.55812540  .00001294  00000-0  99359-4 0  9999,2 53000  53.2172  96.7610 0001243  84.7285 275.3849 15.08851356105908,6917.846,95.437,540.571,538.851,0.0
53000.0,STARLINK-4194,PAYLOAD,2024-06-06 02:06:47,15.08838335,0.0001609,53.219,94.3803,99.0673,261.0501,9.7636e-05,1.266e-05,0.0,0 STARLINK-4194,1 53000U 22076Q   24158.08805538  .00001266  00000-0  97636-4 0  9992,2 53000  53.2190  94.3803 0001609  99.0673 261.0501 15.08838335106452,6917.885,95.438,540.864,538.637,0.0
53000.0,STARLINK-4194,PAYLOAD,2024-06-06 13:14:29,15.08849566,0.0001461,53.2178,92.2966,99.326,260.7898,5.1033e-05,5.25e-06,0.0,0 STARLINK-4194,1 53000U 22076Q   24158.55172797  .00000525  00000-0  51033-4 0  9996,2 53000  53.2178  92.2966 0001461  99.3260 260.7898 15.08849566106527,6917.851,95.437,540.727,538.705,0.0
53000.0,STARLINK-4194,PAYLOAD,2024-06-07 22:37:35,15.08830738,0.0001821,53.2185,86.051,117.6261,242.4916,0.00025373,3.751e-05,0.0,0 STARLINK-4194,1 53000U 22076Q   24159.94277503  .00003751  00000-0  25373-3 0  9992,2 53000  53.2185  86.0510 0001821 117.6261 242.4916 15.08830738106266,6917.909,95.438,541.033,538.514,0.0
53000.0,STARLINK-4194,PAYLOAD,2024-06-08 04:59:08,15.08833445,0.000136,53.217,84.8662,100.1746,259.94,0.00025748,3.812e-05,0.0,0 STARLINK-4194,1 53000U 22076Q   24160.20773288  .00003812  00000-0  25748-3 0  9998,2 53000  53.2170  84.8662 0001360 100.1746 259.9400 15.08833445106772,6917.9,95.438,540.706,538.825,0.0
